#aV2010 12  3  0  0   .00000000      96 DD+AD WGS84 FIT  NGA
## 1612 432000.00000000   900.00000000 55533  .0000000000000
+   32     1  2  3  4  5  6  7  8  9 10 11 12 13 14 15 16 17
+         18 19 20 21 22 23 24 25 26 27 28 29 30 31 32  0  0
+          0  0  0  0  0  0  0  0  0  0  0  0  0  0  0  0  0
+          0  0  0  0  0  0  0  0  0  0  0  0  0  0  0  0  0
+          0  0  0  0  0  0  0  0  0  0  0  0  0  0  0  0  0
++         0  0  0  0  0  0  0  0  0  0  0  0  0  0  0  0  0
++         0  0  0  0  0  0  0  0  0  0  0  0  0  0  0  0  0
++         0  0  0  0  0  0  0  0  0  0  0  0  0  0  0  0  0
++         0  0  0  0  0  0  0  0  0  0  0  0  0  0  0  0  0
++         0  0  0  0  0  0  0  0  0  0  0  0  0  0  0  0  0
%c cc cc ccc ccc cccc cccc cccc cccc ccccc ccccc ccccc ccccc
%c cc cc ccc ccc cccc cccc cccc cccc ccccc ccccc ccccc ccccc
%f  0.0000000  0.000000000  0.00000000000  0.000000000000000
%f  0.0000000  0.000000000  0.00000000000  0.000000000000000
%i    0    0    0    0      0      0      0      0         0
%i    0    0    0    0      0      0      0      0         0
/*      NGA, ST. LOUIS,MO.                                  
/*   EPHEMERIS COMPUTED FROM  3 DAYS OF DATA                
/* CCCCCCCCCCCCCCCCCCCCCCCCCCCCCCCCCCCCCCCCCCCCCCCCCCCCCCCCC
/* CCCCCCCCCCCCCCCCCCCCCCCCCCCCCCCCCCCCCCCCCCCCCCCCCCCCCCCCC
*  2010 12  3 19 15   .00000000                                                 
P  1  -7500.226663  18460.227320  17382.996248   -187.983920                    
V  1  -7352.582021 -21152.992317  19288.404935      -.034633                    
P  2   4457.389920 -15040.346475  21428.130281    306.372542                    
V  2  26364.825149   7063.565238   -997.444898       .023946                    
P  3  -6330.415070  22793.936897 -12143.728121    643.660442                    
V  3 -11874.264982   9754.346134  25667.386368       .051848                    
P  4  16567.343247  -9450.914079  18427.141646    235.555912                    
V  4  22472.882109   7878.688772 -15638.414955       .097336                    
P  5  -1404.100962 -25430.739220   7331.668503    -77.203121                    
V  5   5175.251062   8310.047907  29857.147932      -.059544                    
P  6 -11810.074930  22115.110948  -8319.871289    401.306463                    
V  6  -9934.732215   5667.164374  28799.176747      -.108661                    
P  7  25978.159771   5467.221867  -2563.154905      -.022936                    
V  7   2512.311961   3026.676992  31678.785082       .004282                    
P  8  23156.103301   -958.510720 -13451.480375      7.000570                    
V  8  15503.786121   6639.136342  25657.314188       .000247                    
P  9 -16234.701823 -14726.037053 -15552.292182     46.409528                    
V  9  18506.757427   3190.051544 -23140.364019       .024762                    
P 10   9363.911173 -16558.125473  18183.139295    -59.387661                    
V 10   7369.220182  22562.500315  16932.746895      -.008871                    
P 11  19861.742719  11679.914095 -13803.392334   -108.595974                    
V 11 -17206.933969   3082.075091 -22291.916072      -.028233                    
P 12 -11291.993515 -22760.573189   8036.433016    -48.155740                    
V 12   -374.153686 -10316.565150 -29723.640248       .034832                    
P 13  18799.109690     33.535426  18649.147500    290.195043                    
V 13 -17524.217222  16238.280543  17464.643778      -.011447                    
P 14 -21334.861777  14973.945704  -4546.928763    112.556101                    
V 14   3029.114565  -5594.536027 -31664.147760       .032268                    
P 15  -5119.756684 -15833.503635 -20654.258367   -176.080076                    
V 15  19082.016290 -18168.766993   9334.633852       .043111                    
P 16  -2714.098607  23568.489437  11679.471561   -131.376554                    
V 16  -5490.417424 -13987.049130  27293.201021      -.031734                    
P 17  21529.831143 -13727.144726  -6765.155090    178.866500                    
V 17  -4420.891214   8134.819101 -30299.276296       .009108                    
P 18 -16399.093433  -4407.773626 -20206.959249    108.228059                    
V 18  -5253.174388 -25821.285050   9385.466913       .021547                    
P 19   1444.660254  17230.405734 -20064.741429    -88.755673                    
V 19 -20401.422544  15505.337701  12164.169156      -.034397                    
P 20  13859.650782  20254.116823  10102.473532     49.241693                    
V 20    718.774262  13414.420993 -27431.519009      -.001766                    
P 21 -26181.247060  -4575.337563  -3744.074491   -106.804982                    
V 21  -4066.782759  -4465.993500  30232.050586      -.027056                    
P 22 -13455.243405   9525.584982 -20641.596128    157.675099                    
V 22  -7080.787826 -25779.517542  -7312.772714      -.006029                    
P 23  11622.589339   9732.223482  21817.629755    340.140614                    
V 23 -19859.994661  19281.704574   1651.753526      -.021257                    
P 24  14327.456408  16366.676069 -15384.746672    344.491195                    
V 24 -19208.989390  -4160.747923 -21968.535025       .034609                    
P 25 -16034.286284 -11567.915307  17715.149244    -55.558665                    
V 25  -4473.202463 -22138.214052 -18494.209357      -.023575                    
P 26   7331.430173 -20139.881844 -15970.736305    -64.309041                    
V 26  15632.540258 -11507.682236  22904.056363      -.084431                    
P 27 -10743.114348 -15068.870494 -18468.815133    213.592502                    
V 27  24423.637400   4161.346592 -16759.264416       .036311                    
P 28  13860.700473  -5242.523345 -21530.942710      7.629027                    
V 28   6526.289323  27765.237537  -2776.937703       .018020                    
P 29 -17980.814997  -1963.312895  19512.636762    167.999517                    
V 29  17232.131734 -17638.202768  14196.355899       .026462                    
P 30 -12990.419063   8362.872122  21202.912882    301.742614                    
V 30  -8720.563694 -26500.613800   5019.786777       .032282                    
P 31 -13733.926060  10443.079822  20458.997176     14.990960                    
V 31 -24254.741479  -7571.195621 -12365.370505       .038839                    
P 32   7296.868402  25480.694196   4068.224369   -145.323775                    
V 32  -1683.232045   5086.328244 -30875.314452      -.083565                    
EOF
